#dP2024  1 27 12  0  0.00000000      96 __u+U IGS20 EXT  IAC
## 2298 561600.00000000   900.00000000 60336 0.5000000000000
+  117   C06C07C08C09C10C11C12C13C14C16C19C20C21C22C23C24C25
+        C26C27C28C29C30C32C33C34C35C36C37C38C39C40C41C42C43
+        C44C45C46E02E03E04E05E07E08E09E10E11E12E13E14E15E18
+        E19E21E24E25E26E27E30E31E33E34E36G01G02G03G04G06G07
+        G08G09G10G11G12G13G14G15G16G17G18G19G20G21G22G23G24
+        G25G26G28G29G30G31G32J02J04R01R02R03R04R05R07R08R09
+        R11R12R13R14R15R16R17R18R19R20R21R22R24R25R26  0  0
++         8  7  9  9 10  9  7  9  9  9  7  9  9  8  9  8  7
++         8  7  8  7  9  8  7  8  9 10  8 10 10 10  7  7  7
++         9  8  8  5  7  7  7  7  6  7  8  6  7  7  7  7  7
++         8  8  7  7  8  6  6  6  7  7  7  8  7  6  6  6  6
++         7  7  6  7  6  8  6  7  6  7  6  8  8  8  6  6  7
++         6  7  6  7  7  7  7 11  9  8  8 10 10  8 10  8  7
++         7  9  9  7 10  7  9  8  8  9  8  8  7  8  8  0  0
%c M  cc GPS ccc cccc cccc cccc cccc ccccc ccccc ccccc ccccc
%c cc cc ccc ccc cccc cccc cccc cccc ccccc ccccc ccccc ccccc
%f  0.0000000  0.000000000  0.00000000000  0.000000000000000
%f  0.0000000  0.000000000  0.00000000000  0.000000000000000
%i    0    0    0    0      0      0      0      0         0
%i    0    0    0    0      0      0      0      0         0
/* IAC                                ULTRA-RAPID PREDICTION
/* S/V CLOCKS ARE ALIGNED TO GNSS TIME                      
/* G:C1WC2W R:C1PC2P E:C1XC5X C:C2IC6I J:C1CC2S             
/* PCV:IGS20_2290 OL/AL:FES2004  NONE     YN ORB:CoN CLK:CoN
*  2024 01 27 13  0  0.00000000
PC06  -5233.856103  24842.159742 -33594.091906     73.065046
PC07 -16530.657225  33917.000375  18691.108956   -704.851973
PC08  -4786.465067  40201.283569  12157.894031     82.777402
PC09   4781.401283  28380.029656 -30162.246044   -409.007385
PC10  -9468.586354  33673.976215  23496.057235    109.372061
PC11  -8671.574283 -16203.803851 -20925.415986    379.576589
PC12  12783.684412 -12008.209200 -21661.701974    785.084091
PC13    506.661615  42079.579042   4574.627444    411.704650
PC14    983.119860 -20681.195752  18752.173301     57.830850
PC16  -6127.812298  23729.351162 -34003.130430   -305.145058
PC19   7640.330097  14481.251943 -22568.388533   -933.014387
PC20  -8050.333029  23124.058527 -13348.951669   -105.149953
PC21  20338.448973 -18495.968328  -4849.634923   -963.412346
PC22  19890.410604  -2982.872223 -19354.991849   -132.055471
PC23 -17974.136058  -9459.074241 -19139.444309   -786.067948
PC24    284.466627 -25221.272130  11886.691523    828.849369
PC25 -13333.000642 -23847.784673  -5638.273038    311.787510
PC26  12308.540989 -12110.596502  21893.556857   -240.675252
PC27 -20783.118696   7885.606892  16862.252488    262.675856
PC28 -27549.880853  -3493.081228   2774.059541    199.495443
PC29  18329.113678  14030.794883  15675.543526    233.755835
PC30  -2720.238922  15798.888174  22836.048253    -18.815710
PC32 -20230.144847  18558.679238   4992.056079   -559.100490
PC33  -7656.577133 -14563.169966  22547.564210   -944.994459
PC34    892.110274 -16112.744441 -22777.818352    356.262250
PC35  27641.861930   2480.422070  -2713.175257    447.595624
PC36  12468.566668  24454.358177   5079.880558    -36.958912
PC37 -12834.112791  11373.617309 -22018.728482   -933.175442
PC38  -9455.662795  36413.975354  19221.680082    133.069101
PC39 -13062.988032  20363.330854 -34490.235700     -6.856582
PC40 -24560.482052  28871.952141  18160.362960    -53.892199
PC41 -19580.175075   2184.868833  19814.773696   -883.490751
PC42   9293.300079 -23422.721516  12063.982038   -460.721242
PC43 -17502.171808 -14450.741854 -16260.475480     58.053709
PC44  20575.760932  -8716.910233 -16705.905495    366.438926
PC45  17852.979930   9254.605857  19348.084152    -66.103214
PC46    425.452072  25607.594770 -11147.681114   -119.008473
PE02 -17777.785995   5015.008148 -23144.906003     98.484647
PE03 -28823.813900   4997.455613   4484.722767    -89.797605
PE04  20713.815375 -15990.374886  13840.588570   -313.356093
PE05 -20038.149124  -8760.508166  19950.747664   4714.327517
PE07  -1003.172163  17577.344085 -23790.080786   -100.602618
PE08 -21255.587510  15685.707001 -13348.021302   -214.513782
PE09   1190.635190 -17473.635322  23865.248800   -314.555393
PE10    807.472845 -19256.931773 -22464.136945   -597.351972
PE11  -9116.849523 -23211.422830 -15962.771071   3272.298511
PE12   9627.916648 -12990.135661 -24790.323783   -880.742894
PE13   8529.428528  23019.347925  16541.126130    -20.016437
PE14  26522.737473 -15406.156857 -10468.731891     22.399254
PE15 -10072.753141  12491.595273  24884.993222    -82.478315
PE18 -19017.787149  11198.549727   8078.355232    258.491660
PE19  28651.119786  -3301.182664  -6645.146052   -731.232219
PE21  11669.764588  15900.044763  22066.403202   -575.986403
PE24   1834.193386 -28510.564462  -7711.112362   -565.136562
PE25 -11470.482106 -16257.170357 -21914.539528      0.061724
PE26  22091.812329  19598.808634  -1963.287760    351.406175
PE27  -1499.249753  28448.429823   8062.098877   -259.762047
PE30 -13852.346214  23869.511921 -10744.744141   -858.379008
PE31  13624.832712 -24071.650256  10526.098181    -14.674503
PE33  22674.750454   5718.039845 -18138.188913      6.636588
PE34 -22502.433205  -5146.081030  18529.973233    -91.310288
PE36 -21860.715228 -19922.287885   1354.418589   -177.623182
PG01 -21517.754428 -11266.041174  10799.879265    167.366971
PG02 -22311.022418 -14207.899151   4102.529388   -494.632897
PG03 -12919.917273  -8028.009231  21646.315078    154.155408
PG04 -23154.661376  -3115.520818  12770.532998    276.703167
PG06  -1524.229198  17097.477579  20306.594127    429.758151
PG07 -18317.093183   1233.754987 -18872.668653    -47.532206
PG08 -17269.364475  -8191.477465 -18704.964303   -164.127317
PG09 -25528.207066   7323.464367   1286.194337     72.384115
PG10  10700.750297 -22803.856369  -7674.794218    -70.960259
PG11   8723.243725  21704.298810  12651.581185   -554.997796
PG12  12624.600976   9123.554692  21237.470055   -472.064106
PG13   7432.596279  13840.503194 -21648.046821    619.901036
PG14 -13441.566921  20050.467112 -10844.624911    309.866093
PG15  17885.219216   7035.246448 -18904.770282    121.516424
PG16  -1469.835993 -23290.055431 -12569.041520   -375.496592
PG17 -20087.268415  13098.261460  12005.971638    718.760753
PG18  17055.895991  -2518.973867 -20239.244014   -542.006270
PG19 -12024.519471  14850.955848  18102.530727    432.341723
PG20   1435.519884  26266.207444  -4220.226116    389.774233
PG21 -20956.779299 -17135.776129   -690.860469    137.015032
PG22 -10333.368634  24416.184799  -2873.981892     41.169132
PG23  14881.539995 -12937.377189 -17680.473160    143.737947
PG24  21585.881370  15785.166301   1155.961494   -421.460780
PG25  15870.555496  -3674.923472  20589.389475    486.674352
PG26   2992.851566 -26149.182674  -1557.042240    196.319050
PG28   4009.226558 -15903.311792  20868.544811   -111.614907
PG29  26196.928988  -3966.449947   2472.590032   -608.059804
PG30 -10499.488578  11685.070303 -21287.516671   -440.257289
PG31  -4281.905115 -20305.701660  16130.703786   -227.525316
PG32  16456.580075 -15376.914918  14106.023979   -608.014107
PJ02 -25355.592454  30859.567694  -8801.049624     -1.485081
PJ04 -31111.565632  28405.418899   3211.259429     78.236704
PR01 -10877.772707  -4831.430378  22563.378775     75.610639
PR02 -20442.149238   8560.283644  12739.073021    -22.438854
PR03 -18254.065275  17312.925579  -4356.005776     93.384687
PR04  -6386.452962  16087.320066 -18713.056313    220.848756
PR05   9016.117820   6431.713573 -22962.487071    125.963728
PR07  17748.644536 -17485.022769   5383.487236     74.490881
PR08   5899.266357 -16114.750411  18919.365087    -74.164261
PR09  11535.454575    214.308737  22758.056579    166.695667
PR11  -2209.332259 -25069.197227   4215.379312     36.278234
PR12 -10021.480294 -18451.767647 -14454.101244     36.081570
PR13 -11555.385317  -3104.807510 -22547.942541    -43.732954
PR14  -5935.291351  17145.521792 -17917.906181     25.989424
PR15   2739.789906  25214.189765  -2700.922712     82.725733
PR16   9966.989127  18615.473291  14288.989867     22.792427
PR17 -11542.147009   6193.810888  21893.436910     56.092673
PR18   5277.741541  12627.225632  21532.605599    124.300470
PR19  18171.184669  13666.333034  11566.853702   -263.591587
PR20  23021.471578   5688.515462  -9323.895033   -107.403512
PR21  11281.386073  -6188.858532 -22023.371420    -72.220004
PR22  -5929.681276 -13377.146614 -20868.549671    105.180329
PR24 -23167.291302  -4217.200996   9815.432868    -41.531789
PR25  11856.057038  -6002.940980 -21767.447761     64.999964
PR26   6643.735391 -16478.807083  18333.673074   -201.371387
EOF
